[{"OBJECT_NAME":"ONEWEB-0174","OBJECT_ID":"2021-025AG","EPOCH":"2025-12-09T10:47:15.558432","MEAN_MOTION":13.13470625,"ECCENTRICITY":0.00015782,"INCLINATION":87.8977,"RA_OF_ASC_NODE":357.9384,"ARG_OF_PERICENTER":94.2174,"MEAN_ANOMALY":265.9136,"EPHEMERIS_TYPE":0,"CLASSIFICATION_TYPE":"U","NORAD_CAT_ID":48072,"ELEMENT_SET_NO":999,"REV_AT_EPOCH":22892,"BSTAR":-0.00075836525,"MEAN_MOTION_DOT":-2.64e-6,"MEAN_MOTION_DDOT":0},{"OBJECT_NAME":"ONEWEB-0175","OBJECT_ID":"2021-025AH","EPOCH":"2025-12-09T11:31:08.683104","MEAN_MOTION":13.1347176,"ECCENTRICITY":0.00019435,"INCLINATION":87.8984,"RA_OF_ASC_NODE":357.9018,"ARG_OF_PERICENTER":83.7427,"MEAN_ANOMALY":276.3923,"EPHEMERIS_TYPE":0,"CLASSIFICATION_TYPE":"U","NORAD_CAT_ID":48073,"ELEMENT_SET_NO":999,"REV_AT_EPOCH":22858,"BSTAR":0.00034982477,"MEAN_MOTION_DOT":1.41e-6,"MEAN_MOTION_DDOT":0},{"OBJECT_NAME":"ONEWEB-0177","OBJECT_ID":"2021-025AJ","EPOCH":"2025-12-09T11:48:13.111488","MEAN_MOTION":13.13470986,"ECCENTRICITY":0.00015197,"INCLINATION":87.8988,"RA_OF_ASC_NODE":357.9187,"ARG_OF_PERICENTER":91.7033,"MEAN_ANOMALY":268.427,"EPHEMERIS_TYPE":0,"CLASSIFICATION_TYPE":"U","NORAD_CAT_ID":48074,"ELEMENT_SET_NO":999,"REV_AT_EPOCH":22877,"BSTAR":0.00069102124,"MEAN_MOTION_DOT":2.65e-6,"MEAN_MOTION_DDOT":0},{"OBJECT_NAME":"ONEWEB-0178","OBJECT_ID":"2021-025AK","EPOCH":"2025-12-09T12:15:13.489056","MEAN_MOTION":13.13470282,"ECCENTRICITY":0.00017092,"INCLINATION":87.8977,"RA_OF_ASC_NODE":357.9564,"ARG_OF_PERICENTER":82.1128,"MEAN_ANOMALY":278.0195,"EPHEMERIS_TYPE":0,"CLASSIFICATION_TYPE":"U","NORAD_CAT_ID":48075,"ELEMENT_SET_NO":999,"REV_AT_EPOCH":22882,"BSTAR":0.00044360896,"MEAN_MOTION_DOT":1.75e-6,"MEAN_MOTION_DDOT":0},{"OBJECT_NAME":"ONEWEB-0108","OBJECT_ID":"2021-025AL","EPOCH":"2025-12-09T11:16:32.098944","MEAN_MOTION":13.13471123,"ECCENTRICITY":0.00018114,"INCLINATION":87.8984,"RA_OF_ASC_NODE":357.9129,"ARG_OF_PERICENTER":98.971,"MEAN_ANOMALY":261.1624,"EPHEMERIS_TYPE":0,"CLASSIFICATION_TYPE":"U","NORAD_CAT_ID":48076,"ELEMENT_SET_NO":999,"REV_AT_EPOCH":22874,"BSTAR":-0.00049486503,"MEAN_MOTION_DOT":-1.68e-6,"MEAN_MOTION_DDOT":0},{"OBJECT_NAME":"ONEWEB-0169","OBJECT_ID":"2021-025AM","EPOCH":"2025-12-09T12:02:49.148736","MEAN_MOTION":13.13467102,"ECCENTRICITY":0.00017736,"INCLINATION":87.8981,"RA_OF_ASC_NODE":357.9273,"ARG_OF_PERICENTER":98.5035,"MEAN_ANOMALY":261.6295,"EPHEMERIS_TYPE":0,"CLASSIFICATION_TYPE":"U","NORAD_CAT_ID":48077,"ELEMENT_SET_NO":999,"REV_AT_EPOCH":22740,"BSTAR":0.00060501232,"MEAN_MOTION_DOT":2.34e-6,"MEAN_MOTION_DDOT":0},{"OBJECT_NAME":"ONEWEB-0176","OBJECT_ID":"2021-031A","EPOCH":"2025-12-09T11:50:36.234816","MEAN_MOTION":13.14504439,"ECCENTRICITY":0.00017886,"INCLINATION":87.8988,"RA_OF_ASC_NODE":327.4932,"ARG_OF_PERICENTER":81.4602,"MEAN_ANOMALY":278.6731,"EPHEMERIS_TYPE":0,"CLASSIFICATION_TYPE":"U","NORAD_CAT_ID":48210,"ELEMENT_SET_NO":999,"REV_AT_EPOCH":22339,"BSTAR":0.00065794042,"MEAN_MOTION_DOT":2.57e-6,"MEAN_MOTION_DDOT":0},{"OBJECT_NAME":"ONEWEB-0184","OBJECT_ID":"2021-031B","EPOCH":"2025-12-09T11:11:47.272704","MEAN_MOTION":13.1450412,"ECCENTRICITY":0.0002259,"INCLINATION":87.8998,"RA_OF_ASC_NODE":327.479,"ARG_OF_PERICENTER":66.0077,"MEAN_ANOMALY":294.1289,"EPHEMERIS_TYPE":0,"CLASSIFICATION_TYPE":"U","NORAD_CAT_ID":48211,"ELEMENT_SET_NO":999,"REV_AT_EPOCH":22336,"BSTAR":-0.00010066992,"MEAN_MOTION_DOT":-2.5e-7,"MEAN_MOTION_DDOT":0},{"OBJECT_NAME":"ONEWEB-0179","OBJECT_ID":"2021-031C","EPOCH":"2025-12-09T12:19:07.824000","MEAN_MOTION":13.14503343,"ECCENTRICITY":0.00016951,"INCLINATION":87.8998,"RA_OF_ASC_NODE":327.4776,"ARG_OF_PERICENTER":87.0115,"MEAN_ANOMALY":273.1209,"EPHEMERIS_TYPE":0,"CLASSIFICATION_TYPE":"U","NORAD_CAT_ID":48212,"ELEMENT_SET_NO":999,"REV_AT_EPOCH":22341,"BSTAR":-0.00023210026,"MEAN_MOTION_DOT":-7.3e-7,"MEAN_MOTION_DDOT":0},{"OBJECT_NAME":"ONEWEB-0180","OBJECT_ID":"2021-031D","EPOCH":"2025-12-09T11:16:20.938656","MEAN_MOTION":13.14503272,"ECCENTRICITY":0.00015831,"INCLINATION":87.8997,"RA_OF_ASC_NODE":327.4842,"ARG_OF_PERICENTER":76.9828,"MEAN_ANOMALY":283.1478,"EPHEMERIS_TYPE":0,"CLASSIFICATION_TYPE":"U","NORAD_CAT_ID":48213,"ELEMENT_SET_NO":999,"REV_AT_EPOCH":22329,"BSTAR":-7.7451754e-5,"MEAN_MOTION_DOT":-1.6e-7,"MEAN_MOTION_DDOT":0},{"OBJECT_NAME":"ONEWEB-0218","OBJECT_ID":"2021-031E","EPOCH":"2025-12-09T11:48:19.691712","MEAN_MOTION":13.14502874,"ECCENTRICITY":0.00020666,"INCLINATION":87.8998,"RA_OF_ASC_NODE":327.4803,"ARG_OF_PERICENTER":59.3197,"MEAN_ANOMALY":300.8136,"EPHEMERIS_TYPE":0,"CLASSIFICATION_TYPE":"U","NORAD_CAT_ID":48214,"ELEMENT_SET_NO":999,"REV_AT_EPOCH":22345,"BSTAR":0.00065621652,"MEAN_MOTION_DOT":2.56e-6,"MEAN_MOTION_DDOT":0},{"OBJECT_NAME":"ONEWEB-0209","OBJECT_ID":"2021-031F","EPOCH":"2025-12-09T11:32:20.275008","MEAN_MOTION":13.14503622,"ECCENTRICITY":0.00015253,"INCLINATION":87.8985,"RA_OF_ASC_NODE":327.5194,"ARG_OF_PERICENTER":84.9371,"MEAN_ANOMALY":275.1933,"EPHEMERIS_TYPE":0,"CLASSIFICATION_TYPE":"U","NORAD_CAT_ID":48215,"ELEMENT_SET_NO":999,"REV_AT_EPOCH":22345,"BSTAR":0.00049893105,"MEAN_MOTION_DOT":1.98e-6,"MEAN_MOTION_DDOT":0},{"OBJECT_NAME":"ONEWEB-0198","OBJECT_ID":"2021-031G","EPOCH":"2025-12-09T11:09:41.301504","MEAN_MOTION":13.14504292,"ECCENTRICITY":0.00016027,"INCLINATION":87.8984,"RA_OF_ASC_NODE":327.5195,"ARG_OF_PERICENTER":72.2695,"MEAN_ANOMALY":287.861,"EPHEMERIS_TYPE":0,"CLASSIFICATION_TYPE":"U","NORAD_CAT_ID":48216,"ELEMENT_SET_NO":999,"REV_AT_EPOCH":22356,"BSTAR":-0.00020432096,"MEAN_MOTION_DOT":-6.3e-7,"MEAN_MOTION_DDOT":0},{"OBJECT_NAME":"ONEWEB-0189","OBJECT_ID":"2021-031H","EPOCH":"2025-12-09T11:27:45.584352","MEAN_MOTION":13.14504524,"ECCENTRICITY":0.00016284,"INCLINATION":87.8989,"RA_OF_ASC_NODE":327.491,"ARG_OF_PERICENTER":74.1128,"MEAN_ANOMALY":286.0181,"EPHEMERIS_TYPE":0,"CLASSIFICATION_TYPE":"U","NORAD_CAT_ID":48217,"ELEMENT_SET_NO":999,"REV_AT_EPOCH":22330,"BSTAR":0.00039251498,"MEAN_MOTION_DOT":1.58e-6,"MEAN_MOTION_DDOT":0},{"OBJECT_NAME":"ONEWEB-0196","OBJECT_ID":"2021-031J","EPOCH":"2025-12-09T10:55:48.033120","MEAN_MOTION":13.1450331,"ECCENTRICITY":0.00016703,"INCLINATION":87.8986,"RA_OF_ASC_NODE":327.5096,"ARG_OF_PERICENTER":82.405,"MEAN_ANOMALY":277.7269,"EPHEMERIS_TYPE":0,"CLASSIFICATION_TYPE":"U","NORAD_CAT_ID":48218,"ELEMENT_SET_NO":999,"REV_AT_EPOCH":22330,"BSTAR":-0.00057561475,"MEAN_MOTION_DOT":-2.01e-6,"MEAN_MOTION_DDOT":0},{"OBJECT_NAME":"ONEWEB-0183","OBJECT_ID":"2021-031K","EPOCH":"2025-12-09T12:08:52.314720","MEAN_MOTION":13.14502805,"ECCENTRICITY":0.00016567,"INCLINATION":87.8979,"RA_OF_ASC_NODE":327.5039,"ARG_OF_PERICENTER":92.2264,"MEAN_ANOMALY":267.9056,"EPHEMERIS_TYPE":0,"CLASSIFICATION_TYPE":"U","NORAD_CAT_ID":48219,"ELEMENT_SET_NO":999,"REV_AT_EPOCH":22340,"BSTAR":0.00018254303,"MEAN_MOTION_DOT":8.0e-7,"MEAN_MOTION_DDOT":0},{"OBJECT_NAME":"ONEWEB-0185","OBJECT_ID":"2021-031L","EPOCH":"2025-12-09T10:56:56.539680","MEAN_MOTION":13.14503948,"ECCENTRICITY":0.00013618,"INCLINATION":87.9,"RA_OF_ASC_NODE":327.4894,"ARG_OF_PERICENTER":91.2648,"MEAN_ANOMALY":268.8638,"EPHEMERIS_TYPE":0,"CLASSIFICATION_TYPE":"U","NORAD_CAT_ID":48220,"ELEMENT_SET_NO":999,"REV_AT_EPOCH":22332,"BSTAR":-0.00055624896,"MEAN_MOTION_DOT":-1.93e-6,"MEAN_MOTION_DDOT":0},{"OBJECT_NAME":"ONEWEB-0187","OBJECT_ID":"2021-031M","EPOCH":"2025-12-09T12:17:47.817600","MEAN_MOTION":13.14504355,"ECCENTRICITY":0.00014897,"INCLINATION":87.8984,"RA_OF_ASC_NODE":327.5199,"ARG_OF_PERICENTER":82.0789,"MEAN_ANOMALY":278.051,"EPHEMERIS_TYPE":0,"CLASSIFICATION_TYPE":"U","NORAD_CAT_ID":48221,"ELEMENT_SET_NO":999,"REV_AT_EPOCH":22334,"BSTAR":-0.00018374991,"MEAN_MOTION_DOT":-5.5e-7,"MEAN_MOTION_DDOT":0},{"OBJECT_NAME":"ONEWEB-0192","OBJECT_ID":"2021-031N","EPOCH":"2025-12-09T11:34:37.340832","MEAN_MOTION":13.14503354,"ECCENTRICITY":0.00017599,"INCLINATION":87.8978,"RA_OF_ASC_NODE":327.5163,"ARG_OF_PERICENTER":83.2761,"MEAN_ANOMALY":276.8568,"EPHEMERIS_TYPE":0,"CLASSIFICATION_TYPE":"U","NORAD_CAT_ID":48222,"ELEMENT_SET_NO":999,"REV_AT_EPOCH":22325,"BSTAR":0.0004113418,"MEAN_MOTION_DOT":1.65e-6,"MEAN_MOTION_DDOT":0},{"OBJECT_NAME":"ONEWEB-0219","OBJECT_ID":"2021-031P","EPOCH":"2025-12-09T11:04:55.556832","MEAN_MOTION":13.14503594,"ECCENTRICITY":0.00015094,"INCLINATION":87.8987,"RA_OF_ASC_NODE":327.498,"ARG_OF_PERICENTER":85.9128,"MEAN_ANOMALY":274.2174,"EPHEMERIS_TYPE":0,"CLASSIFICATION_TYPE":"U","NORAD_CAT_ID":48223,"ELEMENT_SET_NO":999,"REV_AT_EPOCH":22345,"BSTAR":-0.00036330376,"MEAN_MOTION_DOT":-1.22e-6,"MEAN_MOTION_DDOT":0},{"OBJECT_NAME":"ONEWEB-0202","OBJECT_ID":"2021-031Q","EPOCH":"2025-12-09T10:37:30.887904","MEAN_MOTION":13.14504409,"ECCENTRICITY":0.00017956,"INCLINATION":87.8982,"RA_OF_ASC_NODE":327.5138,"ARG_OF_PERICENTER":61.5112,"MEAN_ANOMALY":298.6199,"EPHEMERIS_TYPE":0,"CLASSIFICATION_TYPE":"U","NORAD_CAT_ID":48224,"ELEMENT_SET_NO":999,"REV_AT_EPOCH":22343,"BSTAR":-0.00033254204,"MEAN_MOTION_DOT":-1.11e-6,"MEAN_MOTION_DDOT":0},{"OBJECT_NAME":"ONEWEB-0204","OBJECT_ID":"2021-031R","EPOCH":"2025-12-09T11:26:37.644576","MEAN_MOTION":13.14504563,"ECCENTRICITY":0.00016936,"INCLINATION":87.8988,"RA_OF_ASC_NODE":327.4971,"ARG_OF_PERICENTER":96.4884,"MEAN_ANOMALY":263.6439,"EPHEMERIS_TYPE":0,"CLASSIFICATION_TYPE":"U","NORAD_CAT_ID":48225,"ELEMENT_SET_NO":999,"REV_AT_EPOCH":22333,"BSTAR":0.00051722964,"MEAN_MOTION_DOT":2.05e-6,"MEAN_MOTION_DDOT":0},{"OBJECT_NAME":"ONEWEB-0205","OBJECT_ID":"2021-031S","EPOCH":"2025-12-09T10:51:13.525632","MEAN_MOTION":13.14503631,"ECCENTRICITY":0.0001585,"INCLINATION":87.8988,"RA_OF_ASC_NODE":327.4951,"ARG_OF_PERICENTER":85.9191,"MEAN_ANOMALY":274.212,"EPHEMERIS_TYPE":0,"CLASSIFICATION_TYPE":"U","NORAD_CAT_ID":48226,"ELEMENT_SET_NO":999,"REV_AT_EPOCH":22334,"BSTAR":-0.00058262295,"MEAN_MOTION_DOT":-2.03e-6,"MEAN_MOTION_DDOT":0}]
